COSMOS 2228             
1 22286U 92094A   25337.26364865  .00003884  00000+0  33754-3 0  9991
2 22286  82.5170 329.6021 0016285 266.4333  93.5027 14.96656128761634
SL-16 R/B               
1 22566U 93016B   25337.30495983 -.00000177  00000+0 -66254-4 0  9994
2 22566  71.0091  57.6186 0007835 115.6152 244.5781 14.15288684688536
COSMOS 2242             
1 22626U 93024A   25337.33897333  .00003352  00000+0  29579-3 0  9992
2 22626  82.5192 358.8307 0014744 269.1481  90.8051 14.96042511765983
SL-16 R/B               
1 22803U 93059B   25337.06238599  .00000291  00000+0  16773-3 0  9991
2 22803  70.9894 214.8926 0017385 349.8889  10.1882 14.17209719665849
ARIANE 40 R/B           
1 22830U 93061H   25337.19071408  .00000374  00000+0  15303-3 0  9992
2 22830  98.5089  42.8939 0010339 204.7753 155.2936 14.32790948680287
COSMOS 2278             
1 23087U 94023A   25337.34164276  .00000003  00000+0  25985-4 0  9996
2 23087  71.0553  16.6732 0008846 193.8053 166.2829 14.14350996631188
SL-16 R/B               
1 23088U 94023B   25337.29072797  .00000382  00000+0  22173-3 0  9992
2 23088  71.0001 273.3283 0001060  73.5393 286.5847 14.14997759632453
SL-16 R/B               
1 23343U 94074B   25337.33080549  .00000780  00000+0  11151-3 0  9997
2 23343  97.7213   7.0091 0006840 163.4971 207.1511 14.79272069673002
SL-16 R/B               
1 23405U 94077B   25337.09790238 -.00000042  00000+0  29518-5 0  9995
2 23405  70.9810 195.6975 0004575 291.6112  68.4523 14.15545606602560
ARIANE 40+ R/B          
1 23561U 95021B   25337.20701068  .00000460  00000+0  16099-3 0  9995
2 23561  98.4664  44.9105 0007734  74.7841 304.2340 14.39683199605360
SL-16 R/B               
1 23705U 95058B   25337.31213555  .00000364  00000+0  21024-3 0  9993
2 23705  71.0224  22.5981 0014891 267.0634  92.8785 14.15478351554218
SL-16 R/B               
1 24298U 96051B   25337.35255889  .00000028  00000+0  42115-4 0  9997
2 24298  70.7602  19.1541 0019172 272.9552  86.9374 14.12394976508042
