CCSDS_OMM_VERS = 2.0
CREATION_DATE  = 
ORIGINATOR     = 

OBJECT_NAME    = COSMOS 2228
OBJECT_ID      = 1992-094A
CENTER_NAME    = EARTH
REF_FRAME      = TEME
TIME_SYSTEM    = UTC
MEAN_ELEMENT_THEORY = SGP/SGP4

EPOCH          = 2025-12-03T06:19:39.243360
MEAN_MOTION    = 14.96656128
ECCENTRICITY   = .00162859
INCLINATION    = 82.5170
RA_OF_ASC_NODE = 329.6021
ARG_OF_PERICENTER = 266.4333
MEAN_ANOMALY   = 93.5027

EPHEMERIS_TYPE = 0
CLASSIFICATION_TYPE = U
NORAD_CAT_ID   = 22286
ELEMENT_SET_NO = 999
REV_AT_EPOCH   = 76163
BSTAR          = .33753758E-3
MEAN_MOTION_DOT = .3884E-4
MEAN_MOTION_DDOT = 0

CCSDS_OMM_VERS = 2.0
CREATION_DATE  = 
ORIGINATOR     = 

OBJECT_NAME    = SL-16 R/B
OBJECT_ID      = 1993-016B
CENTER_NAME    = EARTH
REF_FRAME      = TEME
TIME_SYSTEM    = UTC
MEAN_ELEMENT_THEORY = SGP/SGP4

EPOCH          = 2025-12-03T07:19:08.529312
MEAN_MOTION    = 14.15288684
ECCENTRICITY   = .00078352
INCLINATION    = 71.0091
RA_OF_ASC_NODE = 57.6186
ARG_OF_PERICENTER = 115.6152
MEAN_ANOMALY   = 244.5781

EPHEMERIS_TYPE = 0
CLASSIFICATION_TYPE = U
NORAD_CAT_ID   = 22566
ELEMENT_SET_NO = 999
REV_AT_EPOCH   = 68853
BSTAR          = -.66253595E-4
MEAN_MOTION_DOT = -.177E-5
MEAN_MOTION_DDOT = 0

CCSDS_OMM_VERS = 2.0
CREATION_DATE  = 
ORIGINATOR     = 

OBJECT_NAME    = COSMOS 2242
OBJECT_ID      = 1993-024A
CENTER_NAME    = EARTH
REF_FRAME      = TEME
TIME_SYSTEM    = UTC
MEAN_ELEMENT_THEORY = SGP/SGP4

EPOCH          = 2025-12-03T08:08:07.295712
MEAN_MOTION    = 14.96042511
ECCENTRICITY   = .00147449
INCLINATION    = 82.5192
RA_OF_ASC_NODE = 358.8307
ARG_OF_PERICENTER = 269.1481
MEAN_ANOMALY   = 90.8051

EPHEMERIS_TYPE = 0
CLASSIFICATION_TYPE = U
NORAD_CAT_ID   = 22626
ELEMENT_SET_NO = 999
REV_AT_EPOCH   = 76598
BSTAR          = .29579429E-3
MEAN_MOTION_DOT = .3352E-4
MEAN_MOTION_DDOT = 0

CCSDS_OMM_VERS = 2.0
CREATION_DATE  = 
ORIGINATOR     = 

OBJECT_NAME    = SL-16 R/B
OBJECT_ID      = 1993-059B
CENTER_NAME    = EARTH
REF_FRAME      = TEME
TIME_SYSTEM    = UTC
MEAN_ELEMENT_THEORY = SGP/SGP4

EPOCH          = 2025-12-03T01:29:50.149536
MEAN_MOTION    = 14.17209719
ECCENTRICITY   = .00173851
INCLINATION    = 70.9894
RA_OF_ASC_NODE = 214.8926
ARG_OF_PERICENTER = 349.8889
MEAN_ANOMALY   = 10.1882

EPHEMERIS_TYPE = 0
CLASSIFICATION_TYPE = U
NORAD_CAT_ID   = 22803
ELEMENT_SET_NO = 999
REV_AT_EPOCH   = 66584
BSTAR          = .16773018E-3
MEAN_MOTION_DOT = .291E-5
MEAN_MOTION_DDOT = 0

CCSDS_OMM_VERS = 2.0
CREATION_DATE  = 
ORIGINATOR     = 

OBJECT_NAME    = ARIANE 40 R/B
OBJECT_ID      = 1993-061H
CENTER_NAME    = EARTH
REF_FRAME      = TEME
TIME_SYSTEM    = UTC
MEAN_ELEMENT_THEORY = SGP/SGP4

EPOCH          = 2025-12-03T04:34:37.696512
MEAN_MOTION    = 14.32790948
ECCENTRICITY   = .00103398
INCLINATION    = 98.5089
RA_OF_ASC_NODE = 42.8939
ARG_OF_PERICENTER = 204.7753
MEAN_ANOMALY   = 155.2936

EPHEMERIS_TYPE = 0
CLASSIFICATION_TYPE = U
NORAD_CAT_ID   = 22830
ELEMENT_SET_NO = 999
REV_AT_EPOCH   = 68028
BSTAR          = .15302944E-3
MEAN_MOTION_DOT = .374E-5
MEAN_MOTION_DDOT = 0

CCSDS_OMM_VERS = 2.0
CREATION_DATE  = 
ORIGINATOR     = 

OBJECT_NAME    = COSMOS 2278
OBJECT_ID      = 1994-023A
CENTER_NAME    = EARTH
REF_FRAME      = TEME
TIME_SYSTEM    = UTC
MEAN_ELEMENT_THEORY = SGP/SGP4

EPOCH          = 2025-12-03T08:11:57.934464
MEAN_MOTION    = 14.14350996
ECCENTRICITY   = .00088467
INCLINATION    = 71.0553
RA_OF_ASC_NODE = 16.6732
ARG_OF_PERICENTER = 193.8053
MEAN_ANOMALY   = 166.2829

EPHEMERIS_TYPE = 0
CLASSIFICATION_TYPE = U
NORAD_CAT_ID   = 23087
ELEMENT_SET_NO = 999
REV_AT_EPOCH   = 63118
BSTAR          = .25984916E-4
MEAN_MOTION_DOT = .3E-7
MEAN_MOTION_DDOT = 0

CCSDS_OMM_VERS = 2.0
CREATION_DATE  = 
ORIGINATOR     = 

OBJECT_NAME    = SL-16 R/B
OBJECT_ID      = 1994-023B
CENTER_NAME    = EARTH
REF_FRAME      = TEME
TIME_SYSTEM    = UTC
MEAN_ELEMENT_THEORY = SGP/SGP4

EPOCH          = 2025-12-03T06:58:38.896608
MEAN_MOTION    = 14.14997759
ECCENTRICITY   = .00010609
INCLINATION    = 71.0001
RA_OF_ASC_NODE = 273.3283
ARG_OF_PERICENTER = 73.5393
MEAN_ANOMALY   = 286.5847

EPHEMERIS_TYPE = 0
CLASSIFICATION_TYPE = U
NORAD_CAT_ID   = 23088
ELEMENT_SET_NO = 999
REV_AT_EPOCH   = 63245
BSTAR          = .22173124E-3
MEAN_MOTION_DOT = .382E-5
MEAN_MOTION_DDOT = 0

CCSDS_OMM_VERS = 2.0
CREATION_DATE  = 
ORIGINATOR     = 

OBJECT_NAME    = SL-16 R/B
OBJECT_ID      = 1994-074B
CENTER_NAME    = EARTH
REF_FRAME      = TEME
TIME_SYSTEM    = UTC
MEAN_ELEMENT_THEORY = SGP/SGP4

EPOCH          = 2025-12-03T07:56:21.594336
MEAN_MOTION    = 14.79272069
ECCENTRICITY   = .00068402
INCLINATION    = 97.7213
RA_OF_ASC_NODE = 7.0091
ARG_OF_PERICENTER = 163.4971
MEAN_ANOMALY   = 207.1511

EPHEMERIS_TYPE = 0
CLASSIFICATION_TYPE = U
NORAD_CAT_ID   = 23343
ELEMENT_SET_NO = 999
REV_AT_EPOCH   = 67300
BSTAR          = .11150815E-3
MEAN_MOTION_DOT = .78E-5
MEAN_MOTION_DDOT = 0

CCSDS_OMM_VERS = 2.0
CREATION_DATE  = 
ORIGINATOR     = 

OBJECT_NAME    = SL-16 R/B
OBJECT_ID      = 1994-077B
CENTER_NAME    = EARTH
REF_FRAME      = TEME
TIME_SYSTEM    = UTC
MEAN_ELEMENT_THEORY = SGP/SGP4

EPOCH          = 2025-12-03T02:20:58.765632
MEAN_MOTION    = 14.15545606
ECCENTRICITY   = .00045751
INCLINATION    = 70.9810
RA_OF_ASC_NODE = 195.6975
ARG_OF_PERICENTER = 291.6112
MEAN_ANOMALY   = 68.4523

EPHEMERIS_TYPE = 0
CLASSIFICATION_TYPE = U
NORAD_CAT_ID   = 23405
ELEMENT_SET_NO = 999
REV_AT_EPOCH   = 60256
BSTAR          = .2951841E-5
MEAN_MOTION_DOT = -.42E-6
MEAN_MOTION_DDOT = 0

CCSDS_OMM_VERS = 2.0
CREATION_DATE  = 
ORIGINATOR     = 

OBJECT_NAME    = ARIANE 40+ R/B
OBJECT_ID      = 1995-021B
CENTER_NAME    = EARTH
REF_FRAME      = TEME
TIME_SYSTEM    = UTC
MEAN_ELEMENT_THEORY = SGP/SGP4

EPOCH          = 2025-12-03T04:58:05.722752
MEAN_MOTION    = 14.39683199
ECCENTRICITY   = .00077348
INCLINATION    = 98.4664
RA_OF_ASC_NODE = 44.9105
ARG_OF_PERICENTER = 74.7841
MEAN_ANOMALY   = 304.2340

EPHEMERIS_TYPE = 0
CLASSIFICATION_TYPE = U
NORAD_CAT_ID   = 23561
ELEMENT_SET_NO = 999
REV_AT_EPOCH   = 60536
BSTAR          = .16099093E-3
MEAN_MOTION_DOT = .46E-5
MEAN_MOTION_DDOT = 0

CCSDS_OMM_VERS = 2.0
CREATION_DATE  = 
ORIGINATOR     = 

OBJECT_NAME    = SL-16 R/B
OBJECT_ID      = 1995-058B
CENTER_NAME    = EARTH
REF_FRAME      = TEME
TIME_SYSTEM    = UTC
MEAN_ELEMENT_THEORY = SGP/SGP4

EPOCH          = 2025-12-03T07:29:28.511520
MEAN_MOTION    = 14.15478351
ECCENTRICITY   = .00148911
INCLINATION    = 71.0224
RA_OF_ASC_NODE = 22.5981
ARG_OF_PERICENTER = 267.0634
MEAN_ANOMALY   = 92.8785

EPHEMERIS_TYPE = 0
CLASSIFICATION_TYPE = U
NORAD_CAT_ID   = 23705
ELEMENT_SET_NO = 999
REV_AT_EPOCH   = 55421
BSTAR          = .21023874E-3
MEAN_MOTION_DOT = .364E-5
MEAN_MOTION_DDOT = 0

CCSDS_OMM_VERS = 2.0
CREATION_DATE  = 
ORIGINATOR     = 

OBJECT_NAME    = SL-16 R/B
OBJECT_ID      = 1996-051B
CENTER_NAME    = EARTH
REF_FRAME      = TEME
TIME_SYSTEM    = UTC
MEAN_ELEMENT_THEORY = SGP/SGP4

EPOCH          = 2025-12-03T08:27:41.088096
MEAN_MOTION    = 14.12394976
ECCENTRICITY   = .00191724
INCLINATION    = 70.7602
RA_OF_ASC_NODE = 19.1541
ARG_OF_PERICENTER = 272.9552
MEAN_ANOMALY   = 86.9374

EPHEMERIS_TYPE = 0
CLASSIFICATION_TYPE = U
NORAD_CAT_ID   = 24298
ELEMENT_SET_NO = 999
REV_AT_EPOCH   = 50804
BSTAR          = .42114844E-4
MEAN_MOTION_DOT = .28E-6
MEAN_MOTION_DDOT = 0

